O3B MPOWER F1           
1 54755U 22174A   23224.33229381 -.00000029  00000+0  00000+0 0  9996
2 54755   0.0414  11.7048 0003839 202.3680 181.2872  5.00111919 13327
